start=new Date('2021-10-28T00:00:00.000Z').valueOf();
sats=[{"REV_AT_EPOCH":"2479","PERIAPSIS":"545.991","BSTAR":"-0.00003521400000","EPOCH":"2021-10-26T16:39:56.334528","OBJECT_TYPE":"PAYLOAD","GP_ID":"188274003","FILE":"3187107","EPHEMERIS_TYPE":"0","TIME_SYSTEM":"UTC","TLE_LINE2":"2 48559  53.0521  91.8366 0001751  89.3989 270.7200 15.06403212 24796","PERIOD":"95.592","OBJECT_ID":"2021-041G","SEMIMAJOR_AXIS":"6925.339","OBJECT_NAME":"STARLINK-2167","ECCENTRICITY":"0.00017510","MEAN_MOTION":"15.06403212","ELEMENT_SET_NO":"999","MEAN_MOTION_DOT":"-0.00000806","INCLINATION":"53.0521","NORAD_CAT_ID":"48559","CENTER_NAME":"EARTH","RCS_SIZE":"LARGE","COUNTRY_CODE":"US","RA_OF_ASC_NODE":"91.8366","ARG_OF_PERICENTER":"89.3989","MEAN_ELEMENT_THEORY":"SGP4","LAUNCH_DATE":"2021-05-15","REF_FRAME":"TEME","CLASSIFICATION_TYPE":"U","DECAY_DATE":null,"MEAN_ANOMALY":"270.7200","MEAN_MOTION_DDOT":"0.0000000000000","SITE":"AFETR","APOAPSIS":"548.416","TLE_LINE1":"1 48559U 21041G   21299.69440202 -.00000806  00000-0 -35214-4 0  9994"},{"TIME_SYSTEM":"UTC","EPHEMERIS_TYPE":"0","PERIOD":"95.592","TLE_LINE2":"2 48560  53.0510  87.3634 0001552  98.2597 261.8568 15.06397162 25398","SEMIMAJOR_AXIS":"6925.357","OBJECT_ID":"2021-041H","OBJECT_NAME":"STARLINK-2173","ECCENTRICITY":"0.00015520","MEAN_MOTION_DOT":"-0.00000047","ELEMENT_SET_NO":"999","MEAN_MOTION":"15.06397162","INCLINATION":"53.0510","PERIAPSIS":"546.147","REV_AT_EPOCH":"2539","OBJECT_TYPE":"PAYLOAD","EPOCH":"2021-10-27T16:34:23.756736","BSTAR":"0.00001571500000","GP_ID":"188283964","FILE":"3187578","MEAN_ANOMALY":"261.8568","DECAY_DATE":null,"CLASSIFICATION_TYPE":"U","SITE":"AFETR","MEAN_MOTION_DDOT":"0.0000000000000","APOAPSIS":"548.297","TLE_LINE1":"1 48560U 21041H   21300.69055274 -.00000047  00000-0  15715-4 0  9990","NORAD_CAT_ID":"48560","CENTER_NAME":"EARTH","RCS_SIZE":"LARGE","RA_OF_ASC_NODE":"87.3634","COUNTRY_CODE":"US","ARG_OF_PERICENTER":"98.2597","MEAN_ELEMENT_THEORY":"SGP4","REF_FRAME":"TEME","LAUNCH_DATE":"2021-05-15"},{"MEAN_ANOMALY":"323.9593","DECAY_DATE":null,"CLASSIFICATION_TYPE":"U","SITE":"AFETR","MEAN_MOTION_DDOT":"0.0000000000000","TLE_LINE1":"1 48561U 21041J   21300.66667824 -.01069220  00000-0 -45516-1 0  9997","APOAPSIS":"490.368","NORAD_CAT_ID":"48561","CENTER_NAME":"EARTH","RA_OF_ASC_NODE":"58.0049","COUNTRY_CODE":"US","RCS_SIZE":"LARGE","ARG_OF_PERICENTER":"48.7817","REF_FRAME":"TEME","LAUNCH_DATE":"2021-05-15","MEAN_ELEMENT_THEORY":"SGP4","EPHEMERIS_TYPE":"0","TIME_SYSTEM":"UTC","SEMIMAJOR_AXIS":"6867.489","OBJECT_ID":"2021-041J","PERIOD":"94.397","TLE_LINE2":"2 48561  53.0584  58.0049 0001477  48.7817 323.9593 15.25477615  3652","MEAN_MOTION_DOT":"-0.01069220","ELEMENT_SET_NO":"999","MEAN_MOTION":"15.25477615","ECCENTRICITY":"0.00014770","OBJECT_NAME":"STARLINK-2186","INCLINATION":"53.0584","OBJECT_TYPE":"PAYLOAD","EPOCH":"2021-10-27T16:00:00.999936","BSTAR":"-0.04551600000000","PERIAPSIS":"488.339","REV_AT_EPOCH":"365","FILE":"3187107","GP_ID":"188274451"},{"FILE":"3187586","GP_ID":"188284108","EPOCH":"2021-10-27T16:45:01.367136","OBJECT_TYPE":"PAYLOAD","BSTAR":"0.00012033000000","PERIAPSIS":"546.063","REV_AT_EPOCH":"2535","INCLINATION":"53.0592","MEAN_MOTION_DOT":"0.00001512","ELEMENT_SET_NO":"999","MEAN_MOTION":"15.06411229","OBJECT_NAME":"STARLINK-2187","ECCENTRICITY":"0.00016120","SEMIMAJOR_AXIS":"6925.314","OBJECT_ID":"2021-041K","PERIOD":"95.591","TLE_LINE2":"2 48562  53.0592  87.3282 0001612  70.7001 289.4162 15.06411229 25354","TIME_SYSTEM":"UTC","EPHEMERIS_TYPE":"0","REF_FRAME":"TEME","LAUNCH_DATE":"2021-05-15","MEAN_ELEMENT_THEORY":"SGP4","ARG_OF_PERICENTER":"70.7001","RA_OF_ASC_NODE":"87.3282","COUNTRY_CODE":"US","RCS_SIZE":"LARGE","CENTER_NAME":"EARTH","NORAD_CAT_ID":"48562","TLE_LINE1":"1 48562U 21041K   21300.69793249  .00001512  00000-0  12033-3 0  9999","APOAPSIS":"548.296","SITE":"AFETR","MEAN_MOTION_DDOT":"0.0000000000000","MEAN_ANOMALY":"289.4162","DECAY_DATE":null,"CLASSIFICATION_TYPE":"U"},{"GP_ID":"188283728","FILE":"3187588","REV_AT_EPOCH":"2540","PERIAPSIS":"545.872","BSTAR":"0.00000580010000","OBJECT_TYPE":"PAYLOAD","EPOCH":"2021-10-27T17:11:32.820576","ECCENTRICITY":"0.00019210","OBJECT_NAME":"STARLINK-2188","MEAN_MOTION":"15.06403803","MEAN_MOTION_DOT":"-0.00000195","ELEMENT_SET_NO":"999","INCLINATION":"53.0569","TIME_SYSTEM":"UTC","EPHEMERIS_TYPE":"0","TLE_LINE2":"2 48563  53.0569  87.2498 0001921  84.1230 275.9978 15.06403803 25403","PERIOD":"95.592","OBJECT_ID":"2021-041L","SEMIMAJOR_AXIS":"6925.337","ARG_OF_PERICENTER":"84.1230","MEAN_ELEMENT_THEORY":"SGP4","LAUNCH_DATE":"2021-05-15","REF_FRAME":"TEME","NORAD_CAT_ID":"48563","CENTER_NAME":"EARTH","RCS_SIZE":"LARGE","RA_OF_ASC_NODE":"87.2498","COUNTRY_CODE":"US","APOAPSIS":"548.532","TLE_LINE1":"1 48563U 21041L   21300.71635209 -.00000195  00000-0  58001-5 0  9998","DECAY_DATE":null,"CLASSIFICATION_TYPE":"U","MEAN_ANOMALY":"275.9978","MEAN_MOTION_DDOT":"0.0000000000000","SITE":"AFETR"},{"TIME_SYSTEM":"UTC","EPHEMERIS_TYPE":"0","PERIOD":"95.592","TLE_LINE2":"2 48564  53.0562  88.7649 0001356  90.3621 269.7524 15.06407067 24904","SEMIMAJOR_AXIS":"6925.327","OBJECT_ID":"2021-041M","OBJECT_NAME":"STARLINK-2190","ECCENTRICITY":"0.00013560","ELEMENT_SET_NO":"999","MEAN_MOTION_DOT":"0.00001781","MEAN_MOTION":"15.06407067","INCLINATION":"53.0562","PERIAPSIS":"546.253","REV_AT_EPOCH":"2490","OBJECT_TYPE":"PAYLOAD","EPOCH":"2021-10-27T09:03:14.954688","BSTAR":"0.00013839000000","GP_ID":"188273892","FILE":"3187107","MEAN_ANOMALY":"269.7524","DECAY_DATE":null,"CLASSIFICATION_TYPE":"U","SITE":"AFETR","MEAN_MOTION_DDOT":"0.0000000000000","APOAPSIS":"548.131","TLE_LINE1":"1 48564U 21041M   21300.37725642  .00001781  00000-0  13839-3 0  9991","NORAD_CAT_ID":"48564","CENTER_NAME":"EARTH","RCS_SIZE":"LARGE","RA_OF_ASC_NODE":"88.7649","COUNTRY_CODE":"US","ARG_OF_PERICENTER":"90.3621","MEAN_ELEMENT_THEORY":"SGP4","REF_FRAME":"TEME","LAUNCH_DATE":"2021-05-15"},{"OBJECT_ID":"2021-041N","SEMIMAJOR_AXIS":"6925.364","TLE_LINE2":"2 48565  53.0577  88.7844 0001582  87.8937 272.2233 15.06395106 24906","PERIOD":"95.592","TIME_SYSTEM":"UTC","EPHEMERIS_TYPE":"0","INCLINATION":"53.0577","MEAN_MOTION":"15.06395106","MEAN_MOTION_DOT":"0.00000875","ELEMENT_SET_NO":"999","OBJECT_NAME":"STARLINK-2191","ECCENTRICITY":"0.00015820","BSTAR":"0.00007764700000","EPOCH":"2021-10-27T08:57:56.242368","OBJECT_TYPE":"PAYLOAD","PERIAPSIS":"546.133","REV_AT_EPOCH":"2490","FILE":"3187107","GP_ID":"188274562","MEAN_MOTION_DDOT":"0.0000000000000","SITE":"AFETR","CLASSIFICATION_TYPE":"U","DECAY_DATE":null,"MEAN_ANOMALY":"272.2233","TLE_LINE1":"1 48565U 21041N   21300.37356762  .00000875  00000-0  77647-4 0  9996","APOAPSIS":"548.324","COUNTRY_CODE":"US","RA_OF_ASC_NODE":"88.7844","RCS_SIZE":"LARGE","NORAD_CAT_ID":"48565","CENTER_NAME":"EARTH","LAUNCH_DATE":"2021-05-15","REF_FRAME":"TEME","MEAN_ELEMENT_THEORY":"SGP4","ARG_OF_PERICENTER":"87.8937"},{"TLE_LINE1":"1 48566U 21041P   21299.93307257 -.00000676  00000-0 -26511-4 0  9996","APOAPSIS":"548.343","MEAN_MOTION_DDOT":"0.0000000000000","SITE":"AFETR","CLASSIFICATION_TYPE":"U","DECAY_DATE":null,"MEAN_ANOMALY":"270.2969","LAUNCH_DATE":"2021-05-15","REF_FRAME":"TEME","MEAN_ELEMENT_THEORY":"SGP4","ARG_OF_PERICENTER":"89.8205","COUNTRY_CODE":"US","RA_OF_ASC_NODE":"100.7557","RCS_SIZE":"LARGE","NORAD_CAT_ID":"48566","CENTER_NAME":"EARTH","INCLINATION":"53.0553","MEAN_MOTION":"15.06396346","MEAN_MOTION_DOT":"-0.00000676","ELEMENT_SET_NO":"999","ECCENTRICITY":"0.00016140","OBJECT_NAME":"STARLINK-2214","OBJECT_ID":"2021-041P","SEMIMAJOR_AXIS":"6925.360","TLE_LINE2":"2 48566  53.0553 100.7557 0001614  89.8205 270.2969 15.06396346 24690","PERIOD":"95.592","TIME_SYSTEM":"UTC","EPHEMERIS_TYPE":"0","FILE":"3187107","GP_ID":"188274115","BSTAR":"-0.00002651100000","OBJECT_TYPE":"PAYLOAD","EPOCH":"2021-10-26T22:23:37.470048","PERIAPSIS":"546.107","REV_AT_EPOCH":"2469"},{"GP_ID":"188284151","FILE":"3187589","PERIAPSIS":"546.098","REV_AT_EPOCH":"2521","BSTAR":"0.00011997000000","OBJECT_TYPE":"PAYLOAD","EPOCH":"2021-10-27T17:47:24.579744","INCLINATION":"53.0546","OBJECT_NAME":"STARLINK-2215","ECCENTRICITY":"0.00015960","MEAN_MOTION":"15.06403204","ELEMENT_SET_NO":"999","MEAN_MOTION_DOT":"0.00001506","TLE_LINE2":"2 48567  53.0546  97.1212 0001596  85.7878 274.3294 15.06403204 25217","PERIOD":"95.592","OBJECT_ID":"2021-041Q","SEMIMAJOR_AXIS":"6925.339","TIME_SYSTEM":"UTC","EPHEMERIS_TYPE":"0","MEAN_ELEMENT_THEORY":"SGP4","LAUNCH_DATE":"2021-05-15","REF_FRAME":"TEME","ARG_OF_PERICENTER":"85.7878","RCS_SIZE":"LARGE","RA_OF_ASC_NODE":"97.1212","COUNTRY_CODE":"US","CENTER_NAME":"EARTH","NORAD_CAT_ID":"48567","APOAPSIS":"548.309","TLE_LINE1":"1 48567U 21041Q   21300.74125671  .00001506  00000-0  11997-3 0  9999","MEAN_MOTION_DDOT":"0.0000000000000","SITE":"AFETR","DECAY_DATE":null,"CLASSIFICATION_TYPE":"U","MEAN_ANOMALY":"274.3294"},{"MEAN_ANOMALY":"275.2703","DECAY_DATE":null,"CLASSIFICATION_TYPE":"U","SITE":"AFETR","MEAN_MOTION_DDOT":"0.0000000000000","APOAPSIS":"548.282","TLE_LINE1":"1 48568U 21041R   21300.15609365  .00001454  00000-0  11652-3 0  9992","CENTER_NAME":"EARTH","NORAD_CAT_ID":"48568","RCS_SIZE":"LARGE","RA_OF_ASC_NODE":"89.7602","COUNTRY_CODE":"US","ARG_OF_PERICENTER":"84.8459","MEAN_ELEMENT_THEORY":"SGP4","REF_FRAME":"TEME","LAUNCH_DATE":"2021-05-15","TIME_SYSTEM":"UTC","EPHEMERIS_TYPE":"0","PERIOD":"95.593","TLE_LINE2":"2 48568  53.0525  89.7602 0001514  84.8459 275.2703 15.06393425 24868","SEMIMAJOR_AXIS":"6925.369","OBJECT_ID":"2021-041R","OBJECT_NAME":"STARLINK-2217","ECCENTRICITY":"0.00015140","ELEMENT_SET_NO":"999","MEAN_MOTION_DOT":"0.00001454","MEAN_MOTION":"15.06393425","INCLINATION":"53.0525","PERIAPSIS":"546.185","REV_AT_EPOCH":"2486","OBJECT_TYPE":"PAYLOAD","EPOCH":"2021-10-27T03:44:46.491360","BSTAR":"0.00011652000000","GP_ID":"188274227","FILE":"3187107"}];
